{
  "type": "FeatureCollection",
  "features": [
    {
      "type": "Feature",
      "properties": {
        "norad_id": 39773,
        "name": "EUTELSAT 3B",
        "group": "eutelsat",
        "lat": 0.07358667502991756,
        "lon": 53.59738255588472,
        "alt_km": 35804.25076490278,
        "timestamp": "2025-12-16T21:38:56.841736+00:00",
        "meta_object_name": "EUTELSAT 3B",
        "meta_object_id": "2014-030A",
        "meta_epoch": "2025-12-16T06:31:24.625056",
        "meta_mean_motion": 1.00271697,
        "meta_eccentricity": 0.00043048,
        "meta_inclination": 0.0604,
        "meta_ra_of_asc_node": 357.0496,
        "meta_arg_of_pericenter": 234.34,
        "meta_mean_anomaly": 314.7162,
        "meta_ephemeris_type": 0,
        "meta_classification_type": "U",
        "meta_norad_cat_id": 39773,
        "meta_element_set_no": 999,
        "meta_rev_at_epoch": 4223,
        "meta_bstar": 0,
        "meta_mean_motion_dot": 4.3e-07,
        "meta_mean_motion_ddot": 0,
        "tle_line1": "1 39773U 14030A   25350.27181279  .00000043  00000+0  00000+0 0  9994",
        "tle_line2": "2 39773   0.0604 357.0496 0004304 234.3400 314.7162  1.00271697 42230"
      },
      "geometry": {
        "type": "Point",
        "coordinates": [
          53.59738255588472,
          0.07358667502991756
        ]
      }
    },
    {
      "type": "Feature",
      "properties": {
        "norad_id": 40425,
        "name": "EUTELSAT 115 WEST B",
        "group": "eutelsat",
        "lat": -0.008211560385619456,
        "lon": -64.39247749117719,
        "alt_km": 35786.14851346963,
        "timestamp": "2025-12-16T21:38:56.841749+00:00",
        "meta_object_name": "EUTELSAT 115 WEST B",
        "meta_object_id": "2015-010B",
        "meta_epoch": "2025-12-15T08:27:38.617056",
        "meta_mean_motion": 1.00270198,
        "meta_eccentricity": 1.61e-05,
        "meta_inclination": 0.0426,
        "meta_ra_of_asc_node": 166.1328,
        "meta_arg_of_pericenter": 67.8489,
        "meta_mean_anomaly": 222.2908,
        "meta_ephemeris_type": 0,
        "meta_classification_type": "U",
        "meta_norad_cat_id": 40425,
        "meta_element_set_no": 999,
        "meta_rev_at_epoch": 3955,
        "meta_bstar": 0,
        "meta_mean_motion_dot": -3e-08,
        "meta_mean_motion_ddot": 0,
        "tle_line1": "1 40425U 15010B   25349.35253029 -.00000003  00000+0  00000+0 0  9996",
        "tle_line2": "2 40425   0.0426 166.1328 0000161  67.8489 222.2908  1.00270198 39551"
      },
      "geometry": {
        "type": "Point",
        "coordinates": [
          -64.39247749117719,
          -0.008211560385619456
        ]
      }
    },
    {
      "type": "Feature",
      "properties": {
        "norad_id": 40875,
        "name": "EUTELSAT 8 WEST B",
        "group": "eutelsat",
        "lat": 0.07422851634748705,
        "lon": 42.55984822516187,
        "alt_km": 35799.09894879958,
        "timestamp": "2025-12-16T21:38:56.841762+00:00",
        "meta_object_name": "EUTELSAT 8 WEST B",
        "meta_object_id": "2015-039B",
        "meta_epoch": "2025-12-16T06:28:09.934752",
        "meta_mean_motion": 1.00272048,
        "meta_eccentricity": 0.00042959,
        "meta_inclination": 0.0645,
        "meta_ra_of_asc_node": 348.2271,
        "meta_arg_of_pericenter": 278.3009,
        "meta_mean_anomaly": 267.6902,
        "meta_ephemeris_type": 0,
        "meta_classification_type": "U",
        "meta_norad_cat_id": 40875,
        "meta_element_set_no": 999,
        "meta_rev_at_epoch": 3782,
        "meta_bstar": 0,
        "meta_mean_motion_dot": -4.2e-07,
        "meta_mean_motion_ddot": 0,
        "tle_line1": "1 40875U 15039B   25350.26955943 -.00000042  00000+0  00000+0 0  9995",
        "tle_line2": "2 40875   0.0645 348.2271 0004295 278.3009 267.6902  1.00272048 37823"
      },
      "geometry": {
        "type": "Point",
        "coordinates": [
          42.55984822516187,
          0.07422851634748705
        ]
      }
    },
    {
      "type": "Feature",
      "properties": {
        "norad_id": 41310,
        "name": "EUTELSAT 9B",
        "group": "eutelsat",
        "lat": 0.01462744189678673,
        "lon": 59.528318289614504,
        "alt_km": 35802.07471362784,
        "timestamp": "2025-12-16T21:38:56.841790+00:00",
        "meta_object_name": "EUTELSAT 9B",
        "meta_object_id": "2016-005A",
        "meta_epoch": "2025-12-16T06:33:01.969344",
        "meta_mean_motion": 1.00271432,
        "meta_eccentricity": 0.0004502,
        "meta_inclination": 0.0534,
        "meta_ra_of_asc_node": 68.6995,
        "meta_arg_of_pericenter": 204.1781,
        "meta_mean_anomaly": 279.536,
        "meta_ephemeris_type": 0,
        "meta_classification_type": "U",
        "meta_norad_cat_id": 41310,
        "meta_element_set_no": 999,
        "meta_rev_at_epoch": 3628,
        "meta_bstar": 0,
        "meta_mean_motion_dot": 8.5e-07,
        "meta_mean_motion_ddot": 0,
        "tle_line1": "1 41310U 16005A   25350.27293946  .00000085  00000+0  00000+0 0  9999",
        "tle_line2": "2 41310   0.0534  68.6995 0004502 204.1781 279.5360  1.00271432 36281"
      },
      "geometry": {
        "type": "Point",
        "coordinates": [
          59.528318289614504,
          0.01462744189678673
        ]
      }
    },
    {
      "type": "Feature",
      "properties": {
        "norad_id": 41382,
        "name": "EUTELSAT 65 WEST A",
        "group": "eutelsat",
        "lat": 0.026311044612103613,
        "lon": -14.671354608903012,
        "alt_km": 35783.21579042283,
        "timestamp": "2025-12-16T21:38:56.841803+00:00",
        "meta_object_name": "EUTELSAT 65 WEST A",
        "meta_object_id": "2016-014A",
        "meta_epoch": "2025-12-16T06:07:38.638848",
        "meta_mean_motion": 1.0027061,
        "meta_eccentricity": 0.00023468,
        "meta_inclination": 0.0588,
        "meta_ra_of_asc_node": 322.8446,
        "meta_arg_of_pericenter": 311.7764,
        "meta_mean_anomaly": 197.234,
        "meta_ephemeris_type": 0,
        "meta_classification_type": "U",
        "meta_norad_cat_id": 41382,
        "meta_element_set_no": 999,
        "meta_rev_at_epoch": 3570,
        "meta_bstar": 0,
        "meta_mean_motion_dot": -2.53e-06,
        "meta_mean_motion_ddot": 0,
        "tle_line1": "1 41382U 16014A   25350.25530832 -.00000253  00000+0  00000+0 0  9992",
        "tle_line2": "2 41382   0.0588 322.8446 0002346 311.7764 197.2340  1.00270610 35702"
      },
      "geometry": {
        "type": "Point",
        "coordinates": [
          -14.671354608903012,
          0.026311044612103613
        ]
      }
    },
    {
      "type": "Feature",
      "properties": {
        "norad_id": 41589,
        "name": "EUTELSAT 117 WEST B",
        "group": "eutelsat",
        "lat": -0.008445318663770907,
        "lon": -66.4835552400299,
        "alt_km": 35785.66706694926,
        "timestamp": "2025-12-16T21:38:56.841815+00:00",
        "meta_object_name": "EUTELSAT 117 WEST B",
        "meta_object_id": "2016-038B",
        "meta_epoch": "2025-12-16T07:41:38.671008",
        "meta_mean_motion": 1.00271538,
        "meta_eccentricity": 1.358e-05,
        "meta_inclination": 0.0424,
        "meta_ra_of_asc_node": 167.2106,
        "meta_arg_of_pericenter": 90.3228,
        "meta_mean_anomaly": 186.0956,
        "meta_ephemeris_type": 0,
        "meta_classification_type": "U",
        "meta_norad_cat_id": 41589,
        "meta_element_set_no": 999,
        "meta_rev_at_epoch": 3482,
        "meta_bstar": 0,
        "meta_mean_motion_dot": 1.2e-07,
        "meta_mean_motion_ddot": 0,
        "tle_line1": "1 41589U 16038B   25350.32058647  .00000012  00000+0  00000+0 0  9996",
        "tle_line2": "2 41589   0.0424 167.2106 0000135  90.3228 186.0956  1.00271538 34824"
      },
      "geometry": {
        "type": "Point",
        "coordinates": [
          -66.4835552400299,
          -0.008445318663770907
        ]
      }
    },
    {
      "type": "Feature",
      "properties": {
        "norad_id": 42741,
        "name": "EUTELSAT 172B",
        "group": "eutelsat",
        "lat": -0.010085568745866491,
        "lon": -137.49753858546495,
        "alt_km": 35786.54533486071,
        "timestamp": "2025-12-16T21:38:56.841827+00:00",
        "meta_object_name": "EUTELSAT 172B",
        "meta_object_id": "2017-029B",
        "meta_epoch": "2025-12-16T07:32:38.663232",
        "meta_mean_motion": 1.00272471,
        "meta_eccentricity": 1.985e-05,
        "meta_inclination": 0.0466,
        "meta_ra_of_asc_node": 152.6624,
        "meta_arg_of_pericenter": 285.8353,
        "meta_mean_anomaly": 291.8587,
        "meta_ephemeris_type": 0,
        "meta_classification_type": "U",
        "meta_norad_cat_id": 42741,
        "meta_element_set_no": 999,
        "meta_rev_at_epoch": 3189,
        "meta_bstar": 0,
        "meta_mean_motion_dot": 1.8e-07,
        "meta_mean_motion_ddot": 0,
        "tle_line1": "1 42741U 17029B   25350.31433638  .00000018  00000+0  00000+0 0  9990",
        "tle_line2": "2 42741   0.0466 152.6624 0000198 285.8353 291.8587  1.00272471 31899"
      },
      "geometry": {
        "type": "Point",
        "coordinates": [
          -137.49753858546495,
          -0.010085568745866491
        ]
      }
    }
  ]
}